{
"type": "FeatureCollection",
"name": "mangaluru_2018_flood_extent",
"crs": { "type": "name", "properties": { "name": "urn:ogc:def:crs:OGC:1.3:CRS84" } },
"features": [
{ "type": "Feature", "properties": { "event": "May 2018 Flood Event" }, "geometry": { "type": "Polygon", "coordinates": [ [ [ 74.870973046193384, 12.854056705710654 ], [ 74.843324479560849, 12.85404165856618 ], [ 74.843307640540516, 12.881169981760024 ], [ 74.86174199547645, 12.881180359359925 ], [ 74.861734553738188, 12.894744511217308 ], [ 74.884778758701501, 12.894755671174602 ], [ 74.884789090529452, 12.872148723405664 ], [ 74.870963804747262, 12.872142282607074 ], [ 74.870973046193384, 12.854056705710654 ] ] ] } }
]
}
