{
"type": "FeatureCollection",
"name": "flood_extent",
"crs": { "type": "name", "properties": { "name": "urn:ogc:def:crs:OGC:1.3:CRS84" } },
"features": [
{ "type": "Feature", "properties": { }, "geometry": { "type": "Polygon", "coordinates": [ [ [ 74.843296393121761, 12.899255499395858 ], [ 74.843324479560849, 12.85404165856618 ], [ 74.852540664494882, 12.854046997872123 ], [ 74.852529310083511, 12.873488976862047 ], [ 74.889396926158398, 12.873507126487544 ], [ 74.889393952234485, 12.880289215288025 ], [ 74.852525344861306, 12.880271055783536 ], [ 74.852514230180262, 12.899260858106894 ], [ 74.843296393121761, 12.899255499395858 ] ] ] } }
]
}
