{
"type": "FeatureCollection",
"name": "flood_extent",
"crs": { "type": "name", "properties": { "name": "urn:ogc:def:crs:OGC:1.3:CRS84" } },
"features": [
{ "type": "Feature", "properties": { }, "geometry": { "type": "Polygon", "coordinates": [ [ [ 74.886628804803934, 12.880288033297539 ], [ 74.886629008076227, 12.879835894196082 ], [ 74.882942151880769, 12.879834272869058 ], [ 74.882942361755511, 12.879382133810825 ], [ 74.880638081023548, 12.879381094172757 ], [ 74.880638295021498, 12.878928955136658 ], [ 74.878334018624571, 12.878927895271332 ], [ 74.878334236745417, 12.878475756258094 ], [ 74.876490819082107, 12.878474893806345 ], [ 74.87649104049936, 12.878022754808807 ], [ 74.875108479818863, 12.878022099482799 ], [ 74.875108703706132, 12.87756996049346 ], [ 74.873265292889627, 12.877569075410003 ], [ 74.873265520072806, 12.877116936437194 ], [ 74.871882964529561, 12.877116264138643 ], [ 74.871883194182331, 12.87666412517464 ], [ 74.870961492182701, 12.876663672939612 ], [ 74.870961723478828, 12.876211533976447 ], [ 74.871883423826361, 12.876211986195068 ], [ 74.871883653461609, 12.87575984719992 ], [ 74.873266201570402, 12.875760519425302 ], [ 74.873266428718949, 12.875308380390189 ], [ 74.875109823014427, 12.875309265313112 ], [ 74.875110046850494, 12.874857126230317 ], [ 74.876492590183901, 12.874857781389931 ], [ 74.876492811533666, 12.874405642267794 ], [ 74.878336199459113, 12.874406504437991 ], [ 74.878336417496868, 12.873954365268991 ], [ 74.880640648460954, 12.87395542471145 ], [ 74.880640862361076, 12.873503285488436 ], [ 74.882945089399655, 12.873504324636301 ], [ 74.882945299162472, 12.873052185360013 ], [ 74.886632056231619, 12.873053805804986 ], [ 74.886632259380022, 12.872601666454321 ], [ 74.889397322553179, 12.872602847716054 ], [ 74.889393952234485, 12.880289215288025 ], [ 74.886628804803934, 12.880288033297539 ] ] ] } }
]
}
